{"type":"FeatureCollection","features":[{"type":"Feature","geometry":{"type":"Point","coordinates":[-122.66545,45.52828]},"properties":{"kind":"incident","id":"820062","title":"The ramp from I-5 SB to 84 EB closed. Use an alternate route. Ramps Affected.","type":"MS","impact":"Closure","body":"The ramp from I-5 SB to 84 EB closed. Use an alternate route. Ramps Affected.","source":"incidents"}},{"type":"Feature","geometry":{"type":"Point","coordinates":[-122.67871,45.55607]},"properties":{"kind":"incident","id":"820034","title":"Road maintenance operations have the SB on-ramp from Going St closed. Use an alternate route. Ramps Affected.","type":"MS","impact":"Closure","body":"Road maintenance operations have the SB on-ramp from Going St closed. Use an alternate route. Ramps Affected.","source":"incidents"}},{"type":"Feature","geometry":{"type":"Point","coordinates":[-122.67868,45.55905]},"properties":{"kind":"incident","id":"820061","title":"The onramp from Alberta to I-5 SB is closed. Use an alternate route. Ramps Affected.","type":"MS","impact":"Closure","body":"The onramp from Alberta to I-5 SB is closed. Use an alternate route. Ramps Affected.","source":"incidents"}},{"type":"Feature","geometry":{"type":"Point","coordinates":[-122.66664,45.53466]},"properties":{"kind":"incident","id":"820059","title":"The onramp from Weidler to I-5 SB closed. Use an alternate route. Ramps Affected.","type":"MS","impact":"Closure","body":"The onramp from Weidler to I-5 SB closed. Use an alternate route. Ramps Affected.","source":"incidents"}},{"type":"Feature","geometry":{"type":"Point","coordinates":[-122.67875,45.54922]},"properties":{"kind":"incident","id":"820058","title":"The highway is closed from I-405/Fremont Bridge to the Morrison Bridge. Follow detour in place.","type":"MS","impact":"Closure with Detour","body":"Till 10/16/2026.","source":"incidents"}},{"type":"Feature","geometry":{"type":"Point","coordinates":[-122.66964,45.5382]},"properties":{"kind":"incident","id":"820064","title":"The Exit for Broadway/Weidler closed. Use an alternate route. Ramps Affected.","type":"MS","impact":"Closure","body":"The Exit for Broadway/Weidler closed. Use an alternate route. Ramps Affected.","source":"incidents"}},{"type":"Feature","geometry":{"type":"Point","coordinates":[-122.6781,45.54253]},"properties":{"kind":"incident","id":"820060","title":"I-405 NB ramp to I-5 SB is closed. Use an alternate route.","type":"MS","impact":"Closure","body":"I-405 NB ramp to I-5 SB is closed. Use an alternate route.","source":"incidents"}},{"type":"Feature","geometry":{"type":"Point","coordinates":[-122.76575,45.42554]},"properties":{"kind":"incident","id":"808352","title":"Traffic Impacts: Shoulder and lane closures with flagging Monday-Friday 9:00 am to 3:00 pm.","type":"RW","impact":"Informational Only","body":"We're improving safety for people walking, biking or rolling by installing a new pedestrian-activated crossing, known as a Rectangular Rapid Flashing Beacon, on Hall Boulevard (OR 141) at SW Omara Street and upgrading the existing signalized crosswalk at SW Fanno Creek Trail.\n<!--Links Start Here-->\n[Link to Additional Information](https://www.oregon.gov/odot/projects/pages/project-details.aspx?project=23509)","source":"incidents"}},{"type":"Feature","geometry":{"type":"Point","coordinates":[-122.76575,45.42554]},"properties":{"kind":"incident","id":"808353","title":"Traffic Impacts: Shoulder and lane closures with flagging Monday-Friday 9:00 am to 3:00 pm.","type":"RW","impact":"Informational Only","body":"We're improving safety for people walking, biking or rolling by installing a new pedestrian-activated crossing, known as a Rectangular Rapid Flashing Beacon, on Hall Boulevard (OR 141) at SW Omara Street and upgrading the existing signalized crosswalk at SW Fanno Creek Trail.\n<!--Links Start Here-->\n[Link to Additional Information](https://www.oregon.gov/odot/projects/pages/project-details.aspx?project=23509)","source":"incidents"}},{"type":"Feature","geometry":{"type":"Point","coordinates":[-122.66555,45.52309]},"properties":{"kind":"incident","id":"819941","title":"Traffic Impacts: Full closure of I-5 southbound.","type":"RW","impact":"No to Minimum Delay","body":"• 24/7 closure of I-5 southbound between Exit 302A to Broadway and the I-84 westbound on-ramp to I-5 southbound starting September 11 and continuing for up to five weeks. One lane of I-5 southbound will be open between the junction at I-405 and the Broadway exit for local and event center access. Closure will begin at approximately 10 p.m. on September 11 – some ramps and lanes may begin closing as early as 9 p.m. Th","source":"incidents"}},{"type":"Feature","geometry":{"type":"Point","coordinates":[-122.6624,45.52534]},"properties":{"kind":"incident","id":"820088","title":"Maintenance has the right lane from 84 WB to I-5 SB closed. Prepare to slow or move over for worker safety.","type":"RW","impact":"Estimated delay under 20 minutes","body":"Maintenance has the right lane from 84 WB to I-5 SB closed. Prepare to slow or move over for worker safety.","source":"incidents"}}]}
