{"type":"FeatureCollection","features":[{"type":"Feature","properties":{},"geometry":{"type":"LineString","coordinates":[[-121.31532,44.058164],[-121.314041,44.057427],[-121.311247,44.059945],[-121.274033,44.054989],[-121.244268,44.055574],[-121.155402,44.039087],[-120.978742,43.895883],[-120.806098,43.871177],[-120.488377,43.782139],[-120.255402,43.685982],[-120.126044,43.590233],[-119.968277,43.590847],[-119.817579,43.523585],[-119.493708,43.542322],[-119.122941,43.511596],[-119.082117,43.528534],[-119.063195,43.584807],[-119.020028,43.585844],[-119.020093,43.449813],[-118.986538,43.43744],[-118.944887,43.142526],[-118.842164,43.02822],[-118.874599,42.988974],[-118.914319,42.825511],[-118.961428,42.813535],[-119.004609,42.709673],[-118.991262,42.643618],[-118.961514,42.62003],[-118.936663,42.530263],[-118.869232,42.471234],[-118.878803,42.362583],[-118.668031,42.283132],[-118.67431,42.267093],[-118.67544,42.264528],[-118.675993,42.26433],[-118.675963,42.263984],[-118.675656,42.264057]]}}]}