{"type":"FeatureCollection","features":[{"type":"Feature","properties":{},"geometry":{"type":"LineString","coordinates":[[-122.674225,45.520191],[-122.673477,45.519991],[-122.67312,45.520657],[-122.674101,45.520919],[-122.675184,45.518924],[-122.674203,45.518663],[-122.662376,45.516506],[-122.661821,45.515293],[-122.641918,45.480286],[-122.64194,45.450213],[-122.537784,45.407903],[-122.401771,45.418031],[-122.372318,45.432478],[-122.345866,45.432635],[-122.341904,45.430284],[-122.221426,45.375801],[-122.15453,45.366481],[-122.047932,45.379767],[-121.926249,45.338532],[-121.87119,45.305267],[-121.835863,45.31003],[-121.820823,45.302992],[-121.793226,45.3123],[-121.781983,45.303457],[-121.734549,45.300392],[-121.73431,45.28935],[-121.713973,45.282988],[-121.698835,45.209107],[-121.662283,45.159015],[-121.558759,45.107108],[-121.513641,45.056031],[-121.513218,45.022166],[-121.465204,44.962669],[-121.424584,44.867593],[-121.320943,44.785826],[-121.280729,44.766575],[-121.227355,44.760251],[-121.23941,44.733115],[-121.227732,44.718688],[-121.176573,44.720819],[-121.12879,44.65464],[-121.139208,44.606869],[-121.121723,44.562844],[-121.040129,44.472851],[-121.032338,44.433152],[-121.037365,44.409454],[-121.061164,44.395637],[-121.062882,44.397303],[-121.064407,44.39719]]}}]}