{"type":"FeatureCollection","features":[{"type":"Feature","properties":{},"geometry":{"type":"LineString","coordinates":[[-121.064407,44.39719],[-121.062882,44.397303],[-121.061164,44.395637],[-121.06781,44.389363],[-121.068205,44.353807],[-121.072784,44.349213],[-121.088044,44.348576],[-121.08821,44.330212],[-121.116866,44.327251],[-121.129444,44.319999],[-121.163068,44.319943],[-121.163869,44.312697],[-121.171551,44.3127],[-121.173176,44.302698],[-121.166537,44.296535],[-121.170156,44.272215],[-121.291588,44.115016],[-121.30203,44.098129],[-121.307237,44.057955],[-121.308816,44.057939],[-121.309066,44.055945],[-121.31532,44.058164]]}}]}